{
    "links": {
        "self": "http://www.neowsapp.com/rest/v1/neo/3766998?api_key=iIulBulltgU6a56xZRHN4H3l9WmuAYTsLGpBGhQ2"
    },
    "id": "3766998",
    "neo_reference_id": "3766998",
    "name": "(2017 BZ5)",
    "designation": "2017 BZ5",
    "nasa_jpl_url": "http://ssd.jpl.nasa.gov/sbdb.cgi?sstr=3766998",
    "absolute_magnitude_h": 22.2,
    "estimated_diameter": {
        "kilometers": {
            "estimated_diameter_min": 0.096506147,
            "estimated_diameter_max": 0.2157943048
        },
        "meters": {
            "estimated_diameter_min": 96.5061469579,
            "estimated_diameter_max": 215.7943048444
        },
        "miles": {
            "estimated_diameter_min": 0.059966121,
            "estimated_diameter_max": 0.134088323
        },
        "feet": {
            "estimated_diameter_min": 316.6212271853,
            "estimated_diameter_max": 707.9865871058
        }
    },
    "is_potentially_hazardous_asteroid": false,
    "close_approach_data": [
        {
            "close_approach_date": "2006-08-02",
            "close_approach_date_full": "2006-Aug-02 12:32",
            "epoch_date_close_approach": 1154521920000,
            "relative_velocity": {
                "kilometers_per_second": "29.601383309",
                "kilometers_per_hour": "106564.9799125422",
                "miles_per_hour": "66215.3343239905"
            },
            "miss_distance": {
                "astronomical": "0.3689279881",
                "lunar": "143.5129873709",
                "kilometers": "55190841.203145347",
                "miles": "34293998.4897939086"
            },
            "orbiting_body": "Earth"
        },
        {
            "close_approach_date": "2016-09-14",
            "close_approach_date_full": "2016-Sep-14 13:52",
            "epoch_date_close_approach": 1473861120000,
            "relative_velocity": {
                "kilometers_per_second": "17.2446954783",
                "kilometers_per_hour": "62080.9037219358",
                "miles_per_hour": "38574.6593154439"
            },
            "miss_distance": {
                "astronomical": "0.0979357058",
                "lunar": "38.0969895562",
                "kilometers": "14650972.984626646",
                "miles": "9103692.4688178748"
            },
            "orbiting_body": "Mars"
        },
        {
            "close_approach_date": "2017-01-19",
            "close_approach_date_full": "2017-Jan-19 23:25",
            "epoch_date_close_approach": 1484868300000,
            "relative_velocity": {
                "kilometers_per_second": "20.0284449738",
                "kilometers_per_hour": "72102.4019055716",
                "miles_per_hour": "44801.6285618259"
            },
            "miss_distance": {
                "astronomical": "0.0798474393",
                "lunar": "31.0606538877",
                "kilometers": "11945006.844234291",
                "miles": "7422283.0771675758"
            },
            "orbiting_body": "Earth"
        },
        {
            "close_approach_date": "2023-08-16",
            "close_approach_date_full": "2023-Aug-16 19:12",
            "epoch_date_close_approach": 1692213120000,
            "relative_velocity": {
                "kilometers_per_second": "21.9884838272",
                "kilometers_per_hour": "79158.5417779114",
                "miles_per_hour": "49186.0394730583"
            },
            "miss_distance": {
                "astronomical": "0.1281756954",
                "lunar": "49.8603455106",
                "kilometers": "19174811.017608798",
                "miles": "11914675.0755174924"
            },
            "orbiting_body": "Earth"
        }
    ],
    "orbital_data": {
        "orbit_id": "9",
        "orbit_determination_date": "2017-04-06 08:20:52",
        "first_observation_date": "2017-01-25",
        "last_observation_date": "2017-02-23",
        "data_arc_in_days": 29,
        "observations_used": 142,
        "orbit_uncertainty": "7",
        "minimum_orbit_intersection": ".0788835",
        "jupiter_tisserand_invariant": "3.219",
        "epoch_osculation": "2459000.5",
        "eccentricity": ".6798727412614802",
        "semi_major_axis": "2.266610256560844",
        "inclination": "17.38346929520193",
        "ascending_node_longitude": "312.0724406999908",
        "orbital_period": "1246.417968871898",
        "perihelion_distance": ".7256037280614359",
        "perihelion_argument": "93.1317358442606",
        "aphelion_distance": "3.807616785060251",
        "perihelion_time": "2458975.550102720162",
        "mean_anomaly": "7.206220742204977",
        "mean_motion": ".2888276717687462",
        "equinox": "J2000",
        "orbit_class": {
            "orbit_class_type": "APO",
            "orbit_class_description": "Near-Earth asteroid orbits which cross the Earth’s orbit similar to that of 1862 Apollo",
            "orbit_class_range": "a (semi-major axis) > 1.0 AU; q (perihelion) < 1.017 AU"
        }
    },
    "is_sentry_object": false
}